[{"OBJECT_NAME":"ONEWEB-0206","OBJECT_ID":"2021-031T","EPOCH":"2026-06-06T01:46:09.931584","MEAN_MOTION":13.14502738,"ECCENTRICITY":0.0001817,"INCLINATION":87.8962,"RA_OF_ASC_NODE":291.9133,"ARG_OF_PERICENTER":94.2958,"MEAN_ANOMALY":265.8379,"EPHEMERIS_TYPE":0,"CLASSIFICATION_TYPE":"U","NORAD_CAT_ID":48227,"ELEMENT_SET_NO":999,"REV_AT_EPOCH":24676,"BSTAR":0.00018066,"MEAN_MOTION_DOT":8e-07,"MEAN_MOTION_DDOT":0.0},{"OBJECT_NAME":"ONEWEB-0182","OBJECT_ID":"2021-031U","EPOCH":"2026-06-06T14:26:34.612800","MEAN_MOTION":13.14502065,"ECCENTRICITY":0.0002088,"INCLINATION":87.8959,"RA_OF_ASC_NODE":291.8159,"ARG_OF_PERICENTER":97.4509,"MEAN_ANOMALY":262.6858,"EPHEMERIS_TYPE":0,"CLASSIFICATION_TYPE":"U","NORAD_CAT_ID":48228,"ELEMENT_SET_NO":999,"REV_AT_EPOCH":24704,"BSTAR":0.00068187,"MEAN_MOTION_DOT":2.66e-06,"MEAN_MOTION_DDOT":0.0},{"OBJECT_NAME":"ONEWEB-0186","OBJECT_ID":"2021-031V","EPOCH":"2026-06-06T14:42:33.376320","MEAN_MOTION":13.14501827,"ECCENTRICITY":0.000191,"INCLINATION":87.8964,"RA_OF_ASC_NODE":291.8034,"ARG_OF_PERICENTER":102.7954,"MEAN_ANOMALY":257.3389,"EPHEMERIS_TYPE":0,"CLASSIFICATION_TYPE":"U","NORAD_CAT_ID":48229,"ELEMENT_SET_NO":999,"REV_AT_EPOCH":24699,"BSTAR":9.892600000000001e-05,"MEAN_MOTION_DOT":4.9e-07,"MEAN_MOTION_DDOT":0.0},{"OBJECT_NAME":"ONEWEB-0181","OBJECT_ID":"2021-031W","EPOCH":"2026-06-06T16:00:12.633696","MEAN_MOTION":13.14503157,"ECCENTRICITY":0.0001864,"INCLINATION":87.8946,"RA_OF_ASC_NODE":291.824,"ARG_OF_PERICENTER":105.9243,"MEAN_ANOMALY":254.2092,"EPHEMERIS_TYPE":0,"CLASSIFICATION_TYPE":"U","NORAD_CAT_ID":48230,"ELEMENT_SET_NO":999,"REV_AT_EPOCH":24685,"BSTAR":0.00068875,"MEAN_MOTION_DOT":2.68e-06,"MEAN_MOTION_DDOT":0.0},{"OBJECT_NAME":"ONEWEB-0188","OBJECT_ID":"2021-031X","EPOCH":"2026-06-06T09:36:34.325856","MEAN_MOTION":13.14503349,"ECCENTRICITY":0.0001897,"INCLINATION":87.8946,"RA_OF_ASC_NODE":291.8753,"ARG_OF_PERICENTER":101.4489,"MEAN_ANOMALY":258.6854,"EPHEMERIS_TYPE":0,"CLASSIFICATION_TYPE":"U","NORAD_CAT_ID":48231,"ELEMENT_SET_NO":999,"REV_AT_EPOCH":24672,"BSTAR":-0.0006068400000000001,"MEAN_MOTION_DOT":-2.12e-06,"MEAN_MOTION_DDOT":0.0},{"OBJECT_NAME":"ONEWEB-0220","OBJECT_ID":"2021-031Y","EPOCH":"2026-06-06T16:02:27.904992","MEAN_MOTION":13.1450167,"ECCENTRICITY":0.0002089,"INCLINATION":87.8964,"RA_OF_ASC_NODE":291.7943,"ARG_OF_PERICENTER":107.0392,"MEAN_ANOMALY":253.0966,"EPHEMERIS_TYPE":0,"CLASSIFICATION_TYPE":"U","NORAD_CAT_ID":48232,"ELEMENT_SET_NO":999,"REV_AT_EPOCH":24702,"BSTAR":0.0007164700000000001,"MEAN_MOTION_DOT":2.78e-06,"MEAN_MOTION_DDOT":0.0},{"OBJECT_NAME":"ONEWEB-0165","OBJECT_ID":"2021-031Z","EPOCH":"2026-06-06T02:06:42.143328","MEAN_MOTION":13.14517244,"ECCENTRICITY":0.0001864,"INCLINATION":87.8962,"RA_OF_ASC_NODE":291.924,"ARG_OF_PERICENTER":109.6417,"MEAN_ANOMALY":250.4914,"EPHEMERIS_TYPE":0,"CLASSIFICATION_TYPE":"U","NORAD_CAT_ID":48233,"ELEMENT_SET_NO":999,"REV_AT_EPOCH":24690,"BSTAR":-0.0078591,"MEAN_MOTION_DOT":-2.901e-05,"MEAN_MOTION_DDOT":0.0},{"OBJECT_NAME":"ONEWEB-0199","OBJECT_ID":"2021-031AA","EPOCH":"2026-06-06T14:31:08.837760","MEAN_MOTION":13.1450255,"ECCENTRICITY":0.0001885,"INCLINATION":87.8966,"RA_OF_ASC_NODE":291.8055,"ARG_OF_PERICENTER":94.2651,"MEAN_ANOMALY":265.8694,"EPHEMERIS_TYPE":0,"CLASSIFICATION_TYPE":"U","NORAD_CAT_ID":48234,"ELEMENT_SET_NO":999,"REV_AT_EPOCH":24687,"BSTAR":0.00040046,"MEAN_MOTION_DOT":1.61e-06,"MEAN_MOTION_DDOT":0.0},{"OBJECT_NAME":"ONEWEB-0203","OBJECT_ID":"2021-031AB","EPOCH":"2026-06-06T03:19:47.292384","MEAN_MOTION":13.14501861,"ECCENTRICITY":0.0001718,"INCLINATION":87.8964,"RA_OF_ASC_NODE":291.9021,"ARG_OF_PERICENTER":99.5088,"MEAN_ANOMALY":260.6236,"EPHEMERIS_TYPE":0,"CLASSIFICATION_TYPE":"U","NORAD_CAT_ID":48235,"ELEMENT_SET_NO":999,"REV_AT_EPOCH":24682,"BSTAR":0.00060307,"MEAN_MOTION_DOT":2.36e-06,"MEAN_MOTION_DDOT":0.0},{"OBJECT_NAME":"ONEWEB-0197","OBJECT_ID":"2021-031AC","EPOCH":"2026-06-06T15:30:19.374048","MEAN_MOTION":13.14503282,"ECCENTRICITY":0.00022,"INCLINATION":87.8949,"RA_OF_ASC_NODE":291.7882,"ARG_OF_PERICENTER":99.8496,"MEAN_ANOMALY":260.2882,"EPHEMERIS_TYPE":0,"CLASSIFICATION_TYPE":"U","NORAD_CAT_ID":48236,"ELEMENT_SET_NO":999,"REV_AT_EPOCH":24680,"BSTAR":0.00026051000000000004,"MEAN_MOTION_DOT":1.09e-06,"MEAN_MOTION_DDOT":0.0},{"OBJECT_NAME":"ONEWEB-0194","OBJECT_ID":"2021-031AD","EPOCH":"2026-06-06T09:31:59.759616","MEAN_MOTION":13.14502316,"ECCENTRICITY":0.0001711,"INCLINATION":87.8948,"RA_OF_ASC_NODE":291.858,"ARG_OF_PERICENTER":93.5633,"MEAN_ANOMALY":266.5692,"EPHEMERIS_TYPE":0,"CLASSIFICATION_TYPE":"U","NORAD_CAT_ID":48237,"ELEMENT_SET_NO":999,"REV_AT_EPOCH":24694,"BSTAR":-0.00071699,"MEAN_MOTION_DOT":-2.53e-06,"MEAN_MOTION_DDOT":0.0},{"OBJECT_NAME":"ONEWEB-0193","OBJECT_ID":"2021-031AE","EPOCH":"2026-06-06T15:23:39.577056","MEAN_MOTION":13.14502174,"ECCENTRICITY":0.0001636,"INCLINATION":87.8955,"RA_OF_ASC_NODE":291.8013,"ARG_OF_PERICENTER":87.2795,"MEAN_ANOMALY":272.8522,"EPHEMERIS_TYPE":0,"CLASSIFICATION_TYPE":"U","NORAD_CAT_ID":48238,"ELEMENT_SET_NO":999,"REV_AT_EPOCH":24692,"BSTAR":-0.00019520000000000003,"MEAN_MOTION_DOT":-6e-07,"MEAN_MOTION_DDOT":0.0},{"OBJECT_NAME":"ONEWEB-0191","OBJECT_ID":"2021-031AF","EPOCH":"2026-06-06T15:39:39.242592","MEAN_MOTION":13.14502458,"ECCENTRICITY":0.0002077,"INCLINATION":87.8962,"RA_OF_ASC_NODE":291.797,"ARG_OF_PERICENTER":97.3616,"MEAN_ANOMALY":262.7749,"EPHEMERIS_TYPE":0,"CLASSIFICATION_TYPE":"U","NORAD_CAT_ID":48239,"ELEMENT_SET_NO":999,"REV_AT_EPOCH":24678,"BSTAR":0.00046842,"MEAN_MOTION_DOT":1.86e-06,"MEAN_MOTION_DDOT":0.0},{"OBJECT_NAME":"ONEWEB-0195","OBJECT_ID":"2021-031AG","EPOCH":"2026-06-06T09:37:41.049984","MEAN_MOTION":13.14501365,"ECCENTRICITY":0.0001805,"INCLINATION":87.896,"RA_OF_ASC_NODE":291.8472,"ARG_OF_PERICENTER":112.8335,"MEAN_ANOMALY":247.2985,"EPHEMERIS_TYPE":0,"CLASSIFICATION_TYPE":"U","NORAD_CAT_ID":48240,"ELEMENT_SET_NO":999,"REV_AT_EPOCH":24673,"BSTAR":-0.00052284,"MEAN_MOTION_DOT":-1.81e-06,"MEAN_MOTION_DDOT":0.0},{"OBJECT_NAME":"ONEWEB-0201","OBJECT_ID":"2021-031AH","EPOCH":"2026-06-06T14:49:36.382080","MEAN_MOTION":13.14503929,"ECCENTRICITY":0.0002123,"INCLINATION":87.8953,"RA_OF_ASC_NODE":291.821,"ARG_OF_PERICENTER":101.1987,"MEAN_ANOMALY":258.9381,"EPHEMERIS_TYPE":0,"CLASSIFICATION_TYPE":"U","NORAD_CAT_ID":48241,"ELEMENT_SET_NO":999,"REV_AT_EPOCH":24699,"BSTAR":-0.00042719000000000003,"MEAN_MOTION_DOT":-1.46e-06,"MEAN_MOTION_DDOT":0.0},{"OBJECT_NAME":"ONEWEB-0207","OBJECT_ID":"2021-031AJ","EPOCH":"2026-06-06T14:20:52.120608","MEAN_MOTION":13.14502275,"ECCENTRICITY":0.0002141,"INCLINATION":87.8961,"RA_OF_ASC_NODE":291.8096,"ARG_OF_PERICENTER":101.7557,"MEAN_ANOMALY":258.3813,"EPHEMERIS_TYPE":0,"CLASSIFICATION_TYPE":"U","NORAD_CAT_ID":48242,"ELEMENT_SET_NO":999,"REV_AT_EPOCH":24690,"BSTAR":0.0007715300000000001,"MEAN_MOTION_DOT":2.99e-06,"MEAN_MOTION_DDOT":0.0}]